STARLINK-1458
1 25675C 20035U   21325.17864159  .00002363  00000-0  15831-3 0  3259
2 25675  53.0522 272.4369 0001853  59.9601  30.6539 15.06404491    17
